{
  "type": "FeatureCollection",
  "features": [
    {
      "type": "Feature",
      "properties": {
        "norad_id": 58701,
        "name": "TIANMU-1 16",
        "group": "weather",
        "lat": -74.39635768194213,
        "lon": -152.98175763302996,
        "alt_km": 497.06611684871496,
        "timestamp": "2025-12-24T05:51:19.249318+00:00",
        "meta_object_name": "TIANMU-1 16",
        "meta_object_id": "2024-004B",
        "meta_epoch": "2025-12-23T23:53:18.610656",
        "meta_mean_motion": 15.24577568,
        "meta_eccentricity": 0.00043798,
        "meta_inclination": 97.4567,
        "meta_ra_of_asc_node": 178.8023,
        "meta_arg_of_pericenter": 244.8282,
        "meta_mean_anomaly": 115.2501,
        "meta_ephemeris_type": 0,
        "meta_classification_type": "U",
        "meta_norad_cat_id": 58701,
        "meta_element_set_no": 999,
        "meta_rev_at_epoch": 10906,
        "meta_bstar": 0.00030714787,
        "meta_mean_motion_dot": 7.499e-05,
        "meta_mean_motion_ddot": 0,
        "tle_line1": "1 58701U 24004B   25357.99535429  .00007499  00000+0  30715-3 0  9996",
        "tle_line2": "2 58701  97.4567 178.8023 0004379 244.8282 115.2501 15.24577568109064"
      },
      "geometry": {
        "type": "Point",
        "coordinates": [
          -152.98175763302996,
          -74.39635768194213
        ]
      }
    },
    {
      "type": "Feature",
      "properties": {
        "norad_id": 58702,
        "name": "TIANMU-1 17",
        "group": "weather",
        "lat": 9.880145664154517,
        "lon": 178.15798668132112,
        "alt_km": 495.034806777212,
        "timestamp": "2025-12-24T05:51:19.249328+00:00",
        "meta_object_name": "TIANMU-1 17",
        "meta_object_id": "2024-004C",
        "meta_epoch": "2025-12-23T23:30:39.855744",
        "meta_mean_motion": 15.24621333,
        "meta_eccentricity": 0.00035498,
        "meta_inclination": 97.46,
        "meta_ra_of_asc_node": 179.2025,
        "meta_arg_of_pericenter": 245.7718,
        "meta_mean_anomaly": 114.3149,
        "meta_ephemeris_type": 0,
        "meta_classification_type": "U",
        "meta_norad_cat_id": 58702,
        "meta_element_set_no": 999,
        "meta_rev_at_epoch": 10905,
        "meta_bstar": 0.00030310088,
        "meta_mean_motion_dot": 7.408e-05,
        "meta_mean_motion_ddot": 0,
        "tle_line1": "1 58702U 24004C   25357.97962796  .00007408  00000+0  30310-3 0  9997",
        "tle_line2": "2 58702  97.4600 179.2025 0003549 245.7718 114.3149 15.24621333109059"
      },
      "geometry": {
        "type": "Point",
        "coordinates": [
          178.15798668132112,
          9.880145664154517
        ]
      }
    },
    {
      "type": "Feature",
      "properties": {
        "norad_id": 58703,
        "name": "TIANMU-1 18",
        "group": "weather",
        "lat": 76.75807337044145,
        "lon": 33.50942516187498,
        "alt_km": 486.30040950562034,
        "timestamp": "2025-12-24T05:51:19.249338+00:00",
        "meta_object_name": "TIANMU-1 18",
        "meta_object_id": "2024-004D",
        "meta_epoch": "2025-12-23T23:06:47.633184",
        "meta_mean_motion": 15.24604539,
        "meta_eccentricity": 0.00029232,
        "meta_inclination": 97.4617,
        "meta_ra_of_asc_node": 179.3837,
        "meta_arg_of_pericenter": 242.8206,
        "meta_mean_anomaly": 117.2734,
        "meta_ephemeris_type": 0,
        "meta_classification_type": "U",
        "meta_norad_cat_id": 58703,
        "meta_element_set_no": 999,
        "meta_rev_at_epoch": 10905,
        "meta_bstar": 0.00027677072,
        "meta_mean_motion_dot": 6.754e-05,
        "meta_mean_motion_ddot": 0,
        "tle_line1": "1 58703U 24004D   25357.96305131  .00006754  00000+0  27677-3 0  9996",
        "tle_line2": "2 58703  97.4617 179.3837 0002923 242.8206 117.2734 15.24604539109056"
      },
      "geometry": {
        "type": "Point",
        "coordinates": [
          33.50942516187498,
          76.75807337044145
        ]
      }
    },
    {
      "type": "Feature",
      "properties": {
        "norad_id": 58990,
        "name": "INSAT-3DS",
        "group": "weather",
        "lat": -0.003975312334377689,
        "lon": -97.04818119421087,
        "alt_km": 35781.22704684749,
        "timestamp": "2025-12-24T05:51:19.249350+00:00",
        "meta_object_name": "INSAT-3DS",
        "meta_object_id": "2024-033A",
        "meta_epoch": "2025-12-23T22:05:00.502080",
        "meta_mean_motion": 1.0027149,
        "meta_eccentricity": 0.00011976,
        "meta_inclination": 0.0581,
        "meta_ra_of_asc_node": 100.0692,
        "meta_arg_of_pericenter": 175.206,
        "meta_mean_anomaly": 230.789,
        "meta_ephemeris_type": 0,
        "meta_classification_type": "U",
        "meta_norad_cat_id": 58990,
        "meta_element_set_no": 999,
        "meta_rev_at_epoch": 4531,
        "meta_bstar": 0,
        "meta_mean_motion_dot": -1.35e-06,
        "meta_mean_motion_ddot": 0,
        "tle_line1": "1 58990U 24033A   25357.92014470 -.00000135  00000+0  00000+0 0  9990",
        "tle_line2": "2 58990   0.0581 100.0692 0001197 175.2060 230.7890  1.00271490 45310"
      },
      "geometry": {
        "type": "Point",
        "coordinates": [
          -97.04818119421087,
          -0.003975312334377689
        ]
      }
    },
    {
      "type": "Feature",
      "properties": {
        "norad_id": 59051,
        "name": "METEOR-M2 4",
        "group": "weather",
        "lat": 12.700184213852586,
        "lon": -46.999163191361916,
        "alt_km": 815.3062900625519,
        "timestamp": "2025-12-24T05:51:19.249360+00:00",
        "meta_object_name": "METEOR-M2 4",
        "meta_object_id": "2024-039A",
        "meta_epoch": "2025-12-23T23:02:31.970400",
        "meta_mean_motion": 14.22402916,
        "meta_eccentricity": 0.00064522,
        "meta_inclination": 98.6783,
        "meta_ra_of_asc_node": 314.6939,
        "meta_arg_of_pericenter": 324.9413,
        "meta_mean_anomaly": 35.1339,
        "meta_ephemeris_type": 0,
        "meta_classification_type": "U",
        "meta_norad_cat_id": 59051,
        "meta_element_set_no": 999,
        "meta_rev_at_epoch": 9435,
        "meta_bstar": 3.6439855e-05,
        "meta_mean_motion_dot": 3.7e-07,
        "meta_mean_motion_ddot": 0,
        "tle_line1": "1 59051U 24039A   25357.96009225  .00000037  00000+0  36440-4 0  9993",
        "tle_line2": "2 59051  98.6783 314.6939 0006452 324.9413  35.1339 14.22402916 94357"
      },
      "geometry": {
        "type": "Point",
        "coordinates": [
          -46.999163191361916,
          12.700184213852586
        ]
      }
    },
    {
      "type": "Feature",
      "properties": {
        "norad_id": 60133,
        "name": "GOES 19",
        "group": "weather",
        "lat": -0.0027306820827909654,
        "lon": 105.67003569727956,
        "alt_km": 35789.513196907756,
        "timestamp": "2025-12-24T05:51:19.249409+00:00",
        "meta_object_name": "GOES 19",
        "meta_object_id": "2024-119A",
        "meta_epoch": "2025-12-23T12:46:25.910976",
        "meta_mean_motion": 1.0027184,
        "meta_eccentricity": 0.00010115,
        "meta_inclination": 0.0202,
        "meta_ra_of_asc_node": 184.8401,
        "meta_arg_of_pericenter": 138.5806,
        "meta_mean_anomaly": 245.325,
        "meta_ephemeris_type": 0,
        "meta_classification_type": "U",
        "meta_norad_cat_id": 60133,
        "meta_element_set_no": 999,
        "meta_rev_at_epoch": 520,
        "meta_bstar": 0,
        "meta_mean_motion_dot": -2.27e-06,
        "meta_mean_motion_ddot": 0,
        "tle_line1": "1 60133U 24119A   25357.53224434 -.00000227  00000+0  00000+0 0  9999",
        "tle_line2": "2 60133   0.0202 184.8401 0001011 138.5806 245.3250  1.00271840  5200"
      },
      "geometry": {
        "type": "Point",
        "coordinates": [
          105.67003569727956,
          -0.0027306820827909654
        ]
      }
    },
    {
      "type": "Feature",
      "properties": {
        "norad_id": 65815,
        "name": "FENGYUN 3H",
        "group": "weather",
        "lat": 30.94147117356484,
        "lon": 122.82723706543386,
        "alt_km": 823.4946136658682,
        "timestamp": "2025-12-24T05:51:19.249426+00:00",
        "meta_object_name": "FENGYUN 3H",
        "meta_object_id": "2025-219A",
        "meta_epoch": "2025-12-23T22:23:35.582208",
        "meta_mean_motion": 14.19907546,
        "meta_eccentricity": 8.023e-05,
        "meta_inclination": 98.66,
        "meta_ra_of_asc_node": 297.2811,
        "meta_arg_of_pericenter": 108.0468,
        "meta_mean_anomaly": 252.0796,
        "meta_ephemeris_type": 0,
        "meta_classification_type": "U",
        "meta_norad_cat_id": 65815,
        "meta_element_set_no": 999,
        "meta_rev_at_epoch": 1251,
        "meta_bstar": 6.6399492e-05,
        "meta_mean_motion_dot": 9.8e-07,
        "meta_mean_motion_ddot": 0,
        "tle_line1": "1 65815U 25219A   25357.93305072  .00000098  00000+0  66399-4 0  9998",
        "tle_line2": "2 65815  98.6600 297.2811 0000802 108.0468 252.0796 14.19907546 12519"
      },
      "geometry": {
        "type": "Point",
        "coordinates": [
          122.82723706543386,
          30.94147117356484
        ]
      }
    }
  ]
}